NORAD_CAT_ID,OBJECT_NAME,OBJECT_TYPE,EPOCH,MEAN_MOTION,ECCENTRICITY,INCLINATION,RA_OF_ASC_NODE,ARG_OF_PERICENTER,MEAN_ANOMALY,BSTAR,MEAN_MOTION_DOT,MEAN_MOTION_DDOT,TLE_LINE0,TLE_LINE1,TLE_LINE2,SEMIMAJOR_AXIS,PERIOD,APOGEE,PERIGEE,DECAYED
50812.0,STARLINK-3338,PAYLOAD,2023-10-04 21:09:28,15.08844666,0.0001835,53.2154,180.2584,112.1537,247.965,0.00021469,3.131e-05,0.0,0 STARLINK-3338,1 50812U 22001K   23277.88157766  .00003131  00000-0  21469-3 0  9993,2 50812  53.2154 180.2584 0001835 112.1537 247.9650 15.08844666 96661,6917.866,95.437,541.001,538.462,0.0
50812.0,STARLINK-3338,PAYLOAD,2023-10-05 00:20:14,15.08847107,0.0001542,53.2165,179.6668,92.6805,267.4364,0.00024353,3.591e-05,0.0,0 STARLINK-3338,1 50812U 22001K   23278.01405781  .00003591  00000-0  24353-3 0  9997,2 50812  53.2165 179.6668 0001542  92.6805 267.4364 15.08847107 96687,6917.859,95.437,540.79,538.657,0.0
50812.0,STARLINK-3338,PAYLOAD,2023-10-05 22:35:38,15.08840966,0.0001405,53.2162,175.5025,85.841,274.2743,0.000154,2.164e-05,0.0,0 STARLINK-3338,1 50812U 22001K   23278.94142217  .00002164  00000-0  15400-3 0  9999,2 50812  53.2162 175.5025 0001405  85.8410 274.2743 15.08840966 96829,6917.877,95.437,540.714,538.77,0.0
50812.0,STARLINK-3338,PAYLOAD,2023-10-06 09:43:20,15.08840003,0.0001507,53.2153,173.4172,78.1946,281.9215,0.00015924,2.247e-05,0.0,0 STARLINK-3338,1 50812U 22001K   23279.40510099  .00002247  00000-0  15924-3 0  9991,2 50812  53.2153 173.4172 0001507  78.1946 281.9215 15.08840003 96899,6917.88,95.438,540.788,538.703,0.0
50812.0,STARLINK-3338,PAYLOAD,2023-10-06 22:26:26,15.08830047,0.000162,53.217,171.0445,95.8234,264.2943,-5.5566e-05,-1.172e-05,0.0,0 STARLINK-3338,1 50812U 22001K   23279.93502889 -.00001172  00000-0 -55566-4 0  9992,2 50812  53.2170 171.0445 0001620  95.8234 264.2943 15.08830047 96975,6917.911,95.438,540.897,538.655,0.0
50812.0,STARLINK-3338,PAYLOAD,2023-10-07 00:01:49,15.08832973,0.0001609,53.2167,170.7487,99.0665,261.051,7.2672e-06,-1.72e-06,0.0,0 STARLINK-3338,1 50812U 22001K   23280.00126874 -.00000172  00000-0  72672-5 0  9994,2 50812  53.2167 170.7487 0001609  99.0665 261.0510 15.08832973 98230,6917.902,95.438,540.88,538.654,0.0
50812.0,STARLINK-3338,PAYLOAD,2023-10-07 09:34:08,15.08835444,0.0001556,53.2169,168.9646,103.504,256.6125,0.00013255,1.822e-05,0.0,0 STARLINK-3338,1 50812U 22001K   23280.39870939  .00001822  00000-0  13255-3 0  9996,2 50812  53.2169 168.9646 0001556 103.5040 256.6125 15.08835444 97043,6917.894,95.438,540.836,538.683,0.0
50812.0,STARLINK-3338,PAYLOAD,2023-10-07 22:17:13,15.08846126,0.0001376,53.2151,166.5832,93.5702,266.5447,0.00051261,7.881e-05,0.0,0 STARLINK-3338,1 50812U 22001K   23280.92862999  .00007881  00000-0  51261-3 0  9992,2 50812  53.2151 166.5832 0001376  93.5702 266.5447 15.08846126 97123,6917.862,95.437,540.679,538.775,0.0
50812.0,STARLINK-3338,PAYLOAD,2023-10-07 23:52:36,15.08851737,0.0001371,53.2153,166.2859,92.3284,267.7865,0.00067206,0.00010427,0.0,0 STARLINK-3338,1 50812U 22001K   23280.99486871  .00010427  00000-0  67206-3 0  9996,2 50812  53.2153 166.2859 0001371  92.3284 267.7865 15.08851737 98388,6917.845,95.437,540.658,538.761,0.0
50812.0,STARLINK-3338,PAYLOAD,2023-10-08 09:24:55,15.08853528,0.0001436,53.2156,164.5009,84.408,275.7076,0.00048671,7.469e-05,0.0,0 STARLINK-3338,1 50812U 22001K   23281.39230619  .00007469  00000-0  48671-3 0  9995,2 50812  53.2156 164.5009 0001436  84.4080 275.7076 15.08853528 97198,6917.839,95.437,540.697,538.711,0.0
50812.0,STARLINK-3338,PAYLOAD,2023-10-08 20:32:37,15.08843738,0.000126,53.215,162.4208,89.1949,270.9187,0.00010977,1.46e-05,0.0,0 STARLINK-3338,1 50812U 22001K   23281.85598700  .00001460  00000-0  10977-3 0  9997,2 50812  53.2150 162.4208 0001260  89.1949 270.9187 15.08843738 97261,6917.869,95.437,540.606,538.862,0.0
50812.0,STARLINK-3338,PAYLOAD,2023-10-09 01:18:46,15.08852941,0.0001512,53.2152,161.528,84.7611,275.3553,0.00051528,7.925e-05,0.0,0 STARLINK-3338,1 50812U 22001K   23282.05470473  .00007925  00000-0  51528-3 0  9995,2 50812  53.2152 161.5280 0001512  84.7611 275.3553 15.08852941 98544,6917.841,95.437,540.752,538.66,0.0
50812.0,STARLINK-3338,PAYLOAD,2023-10-09 09:15:42,15.08841594,0.0001175,53.2149,160.0417,100.2088,259.9037,0.00020385,2.958e-05,0.0,0 STARLINK-3338,1 50812U 22001K   23282.38590647  .00002958  00000-0  20385-3 0  9995,2 50812  53.2149 160.0417 0001175 100.2088 259.9037 15.08841594 97347,6917.876,95.437,540.553,538.928,0.0
50812.0,STARLINK-3338,PAYLOAD,2023-10-09 21:58:47,15.08838235,0.000164,53.216,157.6579,104.8834,255.234,0.00024768,3.656e-05,0.0,0 STARLINK-3338,1 50812U 22001K   23282.91583034  .00003656  00000-0  24768-3 0  9991,2 50812  53.2160 157.6579 0001640 104.8834 255.2340 15.08838235 97420,6917.886,95.438,540.885,538.616,0.0
50812.0,STARLINK-3338,PAYLOAD,2023-10-09 23:34:10,15.08837545,0.000153,53.2154,157.3651,93.4635,266.6532,0.00017339,2.472e-05,0.0,0 STARLINK-3338,1 50812U 22001K   23282.98207034  .00002472  00000-0  17339-3 0  9992,2 50812  53.2154 157.3651 0001530  93.4635 266.6532 15.08837545 98682,6917.888,95.438,540.811,538.694,0.0
50812.0,STARLINK-3338,PAYLOAD,2023-10-10 09:06:29,15.08840077,0.0001618,53.216,155.583,73.9419,286.1751,0.00020482,2.973e-05,0.0,0 STARLINK-3338,1 50812U 22001K   23283.37951245  .00002973  00000-0  20482-3 0  9995,2 50812  53.2160 155.5830 0001618  73.9419 286.1751 15.08840077 97490,6917.88,95.438,540.864,538.626,0.0
50812.0,STARLINK-3338,PAYLOAD,2023-10-10 21:49:35,15.08840651,0.000165,53.2162,153.2041,75.9024,284.2151,0.00012318,1.673e-05,0.0,0 STARLINK-3338,1 50812U 22001K   23283.90943391  .00001673  00000-0  12318-3 0  9992,2 50812  53.2162 153.2041 0001650  75.9024 284.2151 15.08840651 97571,6917.878,95.438,540.885,538.602,0.0
50812.0,STARLINK-3338,PAYLOAD,2023-10-11 01:00:20,15.08848717,0.0001436,53.2163,152.6055,93.2702,266.8454,0.00027417,4.079e-05,0.0,0 STARLINK-3338,1 50812U 22001K   23284.04190844  .00004079  00000-0  27417-3 0  9994,2 50812  53.2163 152.6055 0001436  93.2702 266.8454 15.08848717 98842,6917.854,95.437,540.712,538.725,0.0
50812.0,STARLINK-3338,PAYLOAD,2023-10-11 18:29:36,15.08837891,0.0001461,53.2163,149.3351,92.0489,268.067,0.00013775,1.905e-05,0.0,0 STARLINK-3338,1 50812U 22001K   23284.77055622  .00001905  00000-0  13775-3 0  9995,2 50812  53.2163 149.3351 0001461  92.0489 268.0670 15.08837891 98958,6917.887,95.438,540.763,538.741,0.0
50812.0,STARLINK-3338,PAYLOAD,2023-10-12 00:51:08,15.08847676,0.0001316,53.2156,148.1453,89.9416,270.1727,0.00026509,3.934e-05,0.0,0 STARLINK-3338,1 50812U 22001K   23285.03551194  .00003934  00000-0  26509-3 0  9993,2 50812  53.2156 148.1453 0001316  89.9416 270.1727 15.08847676 98997,6917.857,95.437,540.632,538.812,0.0
50812.0,STARLINK-3338,PAYLOAD,2023-10-12 19:55:45,15.08846597,0.0001493,53.2152,144.5761,89.9086,270.2077,0.00023033,3.38e-05,0.0,0 STARLINK-3338,1 50812U 22001K   23285.83039300  .00003380  00000-0  23033-3 0  9995,2 50812  53.2152 144.5761 0001493  89.9086 270.2077 15.08846597 99119,6917.86,95.437,540.758,538.692,0.0
50812.0,STARLINK-3338,PAYLOAD,2023-10-12 21:31:08,15.08848849,0.000142,53.2151,144.2787,87.2456,272.8698,0.00021091,3.071e-05,0.0,0 STARLINK-3338,1 50812U 22001K   23285.89663155  .00003071  00000-0  21091-3 0  9991,2 50812  53.2151 144.2787 0001420  87.2456 272.8698 15.08848849 97875,6917.853,95.437,540.701,538.736,0.0
50812.0,STARLINK-3338,PAYLOAD,2023-10-13 21:21:55,15.08848492,0.0001343,53.215,139.8199,86.6819,273.4327,0.00018693,2.689e-05,0.0,0 STARLINK-3338,1 50812U 22001K   23286.89023039  .00002689  00000-0  18693-3 0  9991,2 50812  53.2150 139.8199 0001343  86.6819 273.4327 15.08848492 99277,6917.854,95.437,540.649,538.79,0.0
50812.0,STARLINK-3338,PAYLOAD,2023-10-14 06:54:14,15.08843227,0.0001344,53.2147,138.036,86.6371,273.4775,6.872e-05,8.06e-06,0.0,0 STARLINK-3338,1 50812U 22001K   23287.28767163  .00000806  00000-0  68720-4 0  9994,2 50812  53.2147 138.0360 0001344  86.6371 273.4775 15.08843227 99333,6917.871,95.437,540.665,538.806,0.0
50812.0,STARLINK-3338,PAYLOAD,2023-10-14 21:12:42,15.08844736,0.0001339,53.2145,135.3607,71.9864,288.1274,1.2398e-05,-9.1e-07,0.0,0 STARLINK-3338,1 50812U 22001K   23287.88382997 -.00000091  00000-0  12398-4 0  9995,2 50812  53.2145 135.3607 0001339  71.9864 288.1274 15.08844736 98177,6917.866,95.437,540.657,538.805,0.0
50812.0,STARLINK-3338,PAYLOAD,2023-10-15 06:45:01,15.08842215,0.0001399,53.2159,133.5724,83.8433,276.2719,-5.5092e-06,-3.76e-06,0.0,0 STARLINK-3338,1 50812U 22001K   23288.28126994 -.00000376  00000-0 -55092-5 0  9999,2 50812  53.2159 133.5724 0001399  83.8433 276.2719 15.08842215 98231,6917.874,95.437,540.706,538.771,0.0
50812.0,STARLINK-3338,PAYLOAD,2023-10-15 19:28:07,15.08837114,0.0001226,53.2158,131.1962,90.7802,269.333,8.0343e-06,-1.6e-06,0.0,0 STARLINK-3338,1 50812U 22001K   23288.81120014 -.00000160  00000-0  80343-5 0  9992,2 50812  53.2158 131.1962 0001226  90.7802 269.3330 15.08837114 99565,6917.889,95.438,540.602,538.906,0.0
50812.0,STARLINK-3338,PAYLOAD,2023-10-15 21:03:29,15.08872744,0.0001127,53.2163,130.8967,85.0244,275.0877,-0.00052602,-8.657e-05,0.0,0 STARLINK-3338,1 50812U 22001K   23288.87742975 -.00008657  00000-0 -52602-3 0  9999,2 50812  53.2163 130.8967 0001127  85.0244 275.0877 15.08872744 98320,6917.78,95.435,540.425,538.866,0.0
50812.0,STARLINK-3338,PAYLOAD,2023-10-16 12:57:22,15.08838054,0.0001582,53.2159,127.9232,85.09,275.0273,0.00011415,1.529e-05,0.0,0 STARLINK-3338,1 50812U 22001K   23289.53983843  .00001529  00000-0  11415-3 0  9990,2 50812  53.2159 127.9232 0001582  85.0900 275.0273 15.08838054 98428,6917.886,95.438,540.846,538.657,0.0
50812.0,STARLINK-3338,PAYLOAD,2023-10-17 12:48:08,15.08855601,0.0001352,53.2156,123.4635,89.7117,270.403,-0.00010429,-1.948e-05,0.0,0 STARLINK-3338,1 50812U 22001K   23290.53342798 -.00001948  00000-0 -10429-3 0  9991,2 50812  53.2156 123.4635 0001352  89.7117 270.4030 15.08855601 99821,6917.833,95.437,540.633,538.762,0.0
